[{"OBJECT_NAME":"NUSAT-44 (MARIA MITCHELL)","OBJECT_ID":"2024-043AA","EPOCH":"2026-03-09T22:12:18.524160","MEAN_MOTION":15.29764305,"ECCENTRICITY":0.0007331,"INCLINATION":97.5299,"RA_OF_ASC_NODE":207.7691,"ARG_OF_PERICENTER":214.9017,"MEAN_ANOMALY":145.1743,"EPHEMERIS_TYPE":0,"CLASSIFICATION_TYPE":"U","NORAD_CAT_ID":59122,"ELEMENT_SET_NO":999,"REV_AT_EPOCH":11209,"BSTAR":0.00061063193,"MEAN_MOTION_DOT":0.00017562,"MEAN_MOTION_DDOT":0},{"OBJECT_NAME":"STARLINK-32097","OBJECT_ID":"2024-136Y","EPOCH":"2026-03-09T10:54:45.211680","MEAN_MOTION":15.30191854,"ECCENTRICITY":0.00011834,"INCLINATION":53.1604,"RA_OF_ASC_NODE":76.3923,"ARG_OF_PERICENTER":76.496,"MEAN_ANOMALY":283.6173,"EPHEMERIS_TYPE":0,"CLASSIFICATION_TYPE":"U","NORAD_CAT_ID":60351,"ELEMENT_SET_NO":999,"REV_AT_EPOCH":8963,"BSTAR":2.300021e-5,"MEAN_MOTION_DOT":3.22e-6,"MEAN_MOTION_DDOT":0}]
